{"type": "FeatureCollection", "features": [ {"type": "Feature", "properties": {"norad_id": 32224, "name": "FENGYUN 1C DEB", "group": "fengyun-1c-debris", "lat": 48.73296721564422, "lon": -70.69314639719636, "alt_km": 719.677203359277, "timestamp": "2025-12-14T14:39:29.656430+00:00", "meta": {"OBJECT_NAME": "FENGYUN 1C DEB", "OBJECT_ID": "1999-025CVW", "EPOCH": "2025-12-11T07:43:35.963328", "MEAN_MOTION": 14.34018256, "ECCENTRICITY": 0.00771925, "INCLINATION": 98.9841, "RA_OF_ASC_NODE": 296.2781, "ARG_OF_PERICENTER": 70.5749, "MEAN_ANOMALY": 290.3756, "EPHEMERIS_TYPE": 0, "CLASSIFICATION_TYPE": "U", "NORAD_CAT_ID": 32224, "ELEMENT_SET_NO": 999, "REV_AT_EPOCH": 95703, "BSTAR": 0.00053905647, "MEAN_MOTION_DOT": 1.51e-05, "MEAN_MOTION_DDOT": 0}, "tle": {"line1": "1 32224U 99025CVW 25345.32194402  .00001510  00000+0  53906-3 0  9994", "line2": "2 32224  98.9841 296.2781 0077192  70.5749 290.3756 14.34018256957037"}}, "geometry": {"type": "Point", "coordinates": [-70.69314639719636, 48.73296721564422]}}, {"type": "Feature", "properties": {"norad_id": 32225, "name": "FENGYUN 1C DEB", "group": "fengyun-1c-debris", "lat": -43.84343717648381, "lon": -151.54491028523526, "alt_km": 807.9225017756289, "timestamp": "2025-12-14T14:39:29.656442+00:00", "meta": {"OBJECT_NAME": "FENGYUN 1C DEB", "OBJECT_ID": "1999-025CVX", "EPOCH": "2025-12-10T21:13:47.563392", "MEAN_MOTION": 14.13042634, "ECCENTRICITY": 0.0071641, "INCLINATION": 99.0927, "RA_OF_ASC_NODE": 33.5192, "ARG_OF_PERICENTER": 211.7536, "MEAN_ANOMALY": 147.9305, "EPHEMERIS_TYPE": 0, "CLASSIFICATION_TYPE": "U", "NORAD_CAT_ID": 32225, "ELEMENT_SET_NO": 999, "REV_AT_EPOCH": 68090, "BSTAR": 0.00031798, "MEAN_MOTION_DOT": 5.62e-06, "MEAN_MOTION_DDOT": 0}, "tle": {"line1": "1 32225U 99025CVX 25344.88457828  .00000562  00000+0  31798-3 0  9990", "line2": "2 32225  99.0927  33.5192 0071641 211.7536 147.9305 14.13042634680909"}}, "geometry": {"type": "Point", "coordinates": [-151.54491028523526, -43.84343717648381]}}, {"type": "Feature", "properties": {"norad_id": 32230, "name": "FENGYUN 1C DEB", "group": "fengyun-1c-debris", "lat": -12.669944531455934, "lon": 140.35403946404887, "alt_km": 713.6044554154605, "timestamp": "2025-12-14T14:39:29.656465+00:00", "meta": {"OBJECT_NAME": "FENGYUN 1C DEB", "OBJECT_ID": "1999-025CWC", "EPOCH": "2025-12-13T09:10:06.590208", "MEAN_MOTION": 14.56150163, "ECCENTRICITY": 0.005055, "INCLINATION": 98.8706, "RA_OF_ASC_NODE": 137.0363, "ARG_OF_PERICENTER": 87.2509, "MEAN_ANOMALY": 303.0071, "EPHEMERIS_TYPE": 0, "CLASSIFICATION_TYPE": "U", "NORAD_CAT_ID": 32230, "ELEMENT_SET_NO": 999, "REV_AT_EPOCH": 60679, "BSTAR": 0.0050290882, "MEAN_MOTION_DOT": 0.00022605, "MEAN_MOTION_DDOT": 0}, "tle": {"line1": "1 32230U 99025CWC 25347.38202072  .00022605  00000+0  50291-2 0  9993", "line2": "2 32230  98.8706 137.0363 0050550  87.2509 303.0071 14.56150163606793"}}, "geometry": {"type": "Point", "coordinates": [140.35403946404887, -12.669944531455934]}}, {"type": "Feature", "properties": {"norad_id": 32234, "name": "FENGYUN 1C DEB", "group": "fengyun-1c-debris", "lat": 60.25884991071003, "lon": -176.9072621113922, "alt_km": 907.7944576016316, "timestamp": "2025-12-14T14:39:29.656478+00:00", "meta": {"OBJECT_NAME": "FENGYUN 1C DEB", "OBJECT_ID": "1999-025CWG", "EPOCH": "2025-12-12T00:21:39.640896", "MEAN_MOTION": 13.94120362, "ECCENTRICITY": 0.01375114, "INCLINATION": 98.5287, "RA_OF_ASC_NODE": 195.9219, "ARG_OF_PERICENTER": 338.147, "MEAN_ANOMALY": 21.3862, "EPHEMERIS_TYPE": 0, "CLASSIFICATION_TYPE": "U", "NORAD_CAT_ID": 32234, "ELEMENT_SET_NO": 999, "REV_AT_EPOCH": 93199, "BSTAR": 0.0020757912, "MEAN_MOTION_DOT": 2.936e-05, "MEAN_MOTION_DDOT": 0}, "tle": {"line1": "1 32234U 99025CWG 25346.01504214  .00002936  00000+0  20758-2 0  9999", "line2": "2 32234  98.5287 195.9219 0137511 338.1470  21.3862 13.94120362931999"}}, "geometry": {"type": "Point", "coordinates": [-176.9072621113922, 60.25884991071003]}}, {"type": "Feature", "properties": {"norad_id": 32241, "name": "FENGYUN 1C DEB", "group": "fengyun-1c-debris", "lat": -30.465274403977894, "lon": 23.537197785579604, "alt_km": 838.2904643387019, "timestamp": "2025-12-14T14:39:29.656489+00:00", "meta": {"OBJECT_NAME": "FENGYUN 1C DEB", "OBJECT_ID": "1999-025CWP", "EPOCH": "2025-12-12T20:47:10.610592", "MEAN_MOTION": 14.28745094, "ECCENTRICITY": 0.01463636, "INCLINATION": 99.0782, "RA_OF_ASC_NODE": 16.3251, "ARG_OF_PERICENTER": 223.1188, "MEAN_ANOMALY": 135.8454, "EPHEMERIS_TYPE": 0, "CLASSIFICATION_TYPE": "U", "NORAD_CAT_ID": 32241, "ELEMENT_SET_NO": 999, "REV_AT_EPOCH": 93825, "BSTAR": 0.0022024177, "MEAN_MOTION_DOT": 6.175e-05, "MEAN_MOTION_DDOT": 0}, "tle": {"line1": "1 32241U 99025CWP 25346.86609503  .00006175  00000+0  22024-2 0  9994", "line2": "2 32241  99.0782  16.3251 0146363 223.1188 135.8454 14.28745094938256"}}, "geometry": {"type": "Point", "coordinates": [23.537197785579604, -30.465274403977894]}}, {"type": "Feature", "properties": {"norad_id": 32243, "name": "FENGYUN 1C DEB", "group": "fengyun-1c-debris", "lat": 68.48809326176493, "lon": -145.27934711205702, "alt_km": 677.5583845802948, "timestamp": "2025-12-14T14:39:29.656500+00:00", "meta": {"OBJECT_NAME": "FENGYUN 1C DEB", "OBJECT_ID": "1999-025CWR", "EPOCH": "2025-12-13T21:03:05.392800", "MEAN_MOTION": 14.04612546, "ECCENTRICITY": 0.02694846, "INCLINATION": 98.2684, "RA_OF_ASC_NODE": 12.4019, "ARG_OF_PERICENTER": 120.3191, "MEAN_ANOMALY": 242.493, "EPHEMERIS_TYPE": 0, "CLASSIFICATION_TYPE": "U", "NORAD_CAT_ID": 32243, "ELEMENT_SET_NO": 999, "REV_AT_EPOCH": 93604, "BSTAR": 0.00224616, "MEAN_MOTION_DOT": 4.934e-05, "MEAN_MOTION_DDOT": 0}, "tle": {"line1": "1 32243U 99025CWR 25347.87714575  .00004934  00000+0  22462-2 0  9991", "line2": "2 32243  98.2684  12.4019 0269484 120.3191 242.4930 14.04612546936049"}}, "geometry": {"type": "Point", "coordinates": [-145.27934711205702, 68.48809326176493]}}, {"type": "Feature", "properties": {"norad_id": 32245, "name": "FENGYUN 1C DEB", "group": "fengyun-1c-debris", "lat": 33.34174402778944, "lon": 10.545253662030701, "alt_km": 704.3284013590473, "timestamp": "2025-12-14T14:39:29.656510+00:00", "meta": {"OBJECT_NAME": "FENGYUN 1C DEB", "OBJECT_ID": "1999-025CWT", "EPOCH": "2025-12-08T06:47:00.083040", "MEAN_MOTION": 14.76843452, "ECCENTRICITY": 0.00978135, "INCLINATION": 98.6545, "RA_OF_ASC_NODE": 178.0112, "ARG_OF_PERICENTER": 355.9473, "MEAN_ANOMALY": 4.0932, "EPHEMERIS_TYPE": 0, "CLASSIFICATION_TYPE": "U", "NORAD_CAT_ID": 32245, "ELEMENT_SET_NO": 999, "REV_AT_EPOCH": 66040, "BSTAR": 0.0014541087, "MEAN_MOTION_DOT": 0.00011, "MEAN_MOTION_DDOT": 0}, "tle": {"line1": "1 32245U 99025CWT 25342.28263985  .00011000  00000+0  14541-2 0  9998", "line2": "2 32245  98.6545 178.0112 0097813 355.9473   4.0932 14.76843452660407"}}, "geometry": {"type": "Point", "coordinates": [10.545253662030701, 33.34174402778944]}}, {"type": "Feature", "properties": {"norad_id": 32304, "name": "FENGYUN 1C DEB", "group": "fengyun-1c-debris", "lat": -30.58986012535001, "lon": -50.99458059134155, "alt_km": 740.0536416210289, "timestamp": "2025-12-14T14:39:29.656523+00:00", "meta": {"OBJECT_NAME": "FENGYUN 1C DEB", "OBJECT_ID": "1999-025CWV", "EPOCH": "2025-12-03T02:19:20.087328", "MEAN_MOTION": 14.50391603, "ECCENTRICITY": 0.00495576, "INCLINATION": 99.3949, "RA_OF_ASC_NODE": 290.5539, "ARG_OF_PERICENTER": 255.7789, "MEAN_ANOMALY": 103.7894, "EPHEMERIS_TYPE": 0, "CLASSIFICATION_TYPE": "U", "NORAD_CAT_ID": 32304, "ELEMENT_SET_NO": 999, "REV_AT_EPOCH": 56133, "BSTAR": 0.0019806873, "MEAN_MOTION_DOT": 7.809e-05, "MEAN_MOTION_DDOT": 0}, "tle": {"line1": "1 32304U 99025CWV 25337.09676027  .00007809  00000+0  19807-2 0  9994", "line2": "2 32304  99.3949 290.5539 0049557 255.7789 103.7894 14.50391603561335"}}, "geometry": {"type": "Point", "coordinates": [-50.99458059134155, -30.58986012535001]}}, {"type": "Feature", "properties": {"norad_id": 32308, "name": "FENGYUN 1C DEB", "group": "fengyun-1c-debris", "lat": -71.47009692147431, "lon": 65.30378091890522, "alt_km": 930.7509288519113, "timestamp": "2025-12-14T14:39:29.656533+00:00", "meta": {"OBJECT_NAME": "FENGYUN 1C DEB", "OBJECT_ID": "1999-025CWZ", "EPOCH": "2025-12-12T03:12:25.790112", "MEAN_MOTION": 14.05495628, "ECCENTRICITY": 0.010919, "INCLINATION": 97.7755, "RA_OF_ASC_NODE": 39.1199, "ARG_OF_PERICENTER": 62.4862, "MEAN_ANOMALY": 298.7356, "EPHEMERIS_TYPE": 0, "CLASSIFICATION_TYPE": "U", "NORAD_CAT_ID": 32308, "ELEMENT_SET_NO": 999, "REV_AT_EPOCH": 65403, "BSTAR": 0.0022704306, "MEAN_MOTION_DOT": 3.858e-05, "MEAN_MOTION_DDOT": 0}, "tle": {"line1": "1 32308U 99025CWZ 25346.13363183  .00003858  00000+0  22704-2 0  9999", "line2": "2 32308  97.7755  39.1199 0109190  62.4862 298.7356 14.05495628654030"}}, "geometry": {"type": "Point", "coordinates": [65.30378091890522, -71.47009692147431]}}, {"type": "Feature", "properties": {"norad_id": 32314, "name": "FENGYUN 1C DEB", "group": "fengyun-1c-debris", "lat": -72.9064811980687, "lon": 124.33584725950138, "alt_km": 708.1933988306728, "timestamp": "2025-12-14T14:39:29.656546+00:00", "meta": {"OBJECT_NAME": "FENGYUN 1C DEB", "OBJECT_ID": "1999-025CXF", "EPOCH": "2025-12-09T13:16:04.145664", "MEAN_MOTION": 14.79358552, "ECCENTRICITY": 0.0149391, "INCLINATION": 98.8627, "RA_OF_ASC_NODE": 88.2704, "ARG_OF_PERICENTER": 167.7932, "MEAN_ANOMALY": 192.6962, "EPHEMERIS_TYPE": 0, "CLASSIFICATION_TYPE": "U", "NORAD_CAT_ID": 32314, "ELEMENT_SET_NO": 999, "REV_AT_EPOCH": 97383, "BSTAR": 0.0023179, "MEAN_MOTION_DOT": 0.00020854, "MEAN_MOTION_DDOT": 0}, "tle": {"line1": "1 32314U 99025CXF 25343.55282576  .00020854  00000+0  23179-2 0  9997", "line2": "2 32314  98.8627  88.2704 0149391 167.7932 192.6962 14.79358552973830"}}, "geometry": {"type": "Point", "coordinates": [124.33584725950138, -72.9064811980687]}}]}